{"type": "FeatureCollection", "features": [{"type": "Feature", "properties": {"norad_id": 2807, "name": "OPS 7218 (TRANSIT 16)", "group": "nnss", "lat": -49.12858736941038, "lon": -6.248230214967601, "alt_km": 1092.6164986698104, "timestamp": "2025-12-09T07:41:33.476479+00:00", "meta": {"OBJECT_NAME": "OPS 7218 (TRANSIT 16)", "OBJECT_ID": "1967-048A", "EPOCH": "2025-12-08T23:05:02.632128", "MEAN_MOTION": 13.50721151, "ECCENTRICITY": 0.00217945, "INCLINATION": 89.6731, "RA_OF_ASC_NODE": 354.1416, "ARG_OF_PERICENTER": 124.2049, "MEAN_ANOMALY": 243.6519, "EPHEMERIS_TYPE": 0, "CLASSIFICATION_TYPE": "U", "NORAD_CAT_ID": 2807, "ELEMENT_SET_NO": 999, "REV_AT_EPOCH": 88225, "BSTAR": 0.00020711487, "MEAN_MOTION_DOT": 1.44e-06, "MEAN_MOTION_DDOT": 0}, "tle": {"line1": "1 02807U 67048A   25342.96183602  .00000144  00000+0  20711-3 0  9995", "line2": "2 02807  89.6731 354.1416 0021794 124.2049 243.6519 13.50721151882253"}}, "geometry": {"type": "Point", "coordinates": [-6.248230214967601, -49.12858736941038]}}, {"type": "Feature", "properties": {"norad_id": 2965, "name": "OPS 4947 (TRANSIT 17)", "group": "nnss", "lat": -17.6936620280149, "lon": 24.457062230286105, "alt_km": 1068.9091457911081, "timestamp": "2025-12-09T07:41:33.476505+00:00", "meta": {"OBJECT_NAME": "OPS 4947 (TRANSIT 17)", "OBJECT_ID": "1967-092A", "EPOCH": "2025-12-08T16:23:38.513760", "MEAN_MOTION": 13.53452092, "ECCENTRICITY": 0.00459599, "INCLINATION": 89.2499, "RA_OF_ASC_NODE": 24.745, "ARG_OF_PERICENTER": 246.6699, "MEAN_ANOMALY": 231.189, "EPHEMERIS_TYPE": 0, "CLASSIFICATION_TYPE": "U", "NORAD_CAT_ID": 2965, "ELEMENT_SET_NO": 999, "REV_AT_EPOCH": 87042, "BSTAR": 0.00027138776, "MEAN_MOTION_DOT": 1.94e-06, "MEAN_MOTION_DDOT": 0}, "tle": {"line1": "1 02965U 67092A   25342.68308465  .00000194  00000+0  27139-3 0  9990", "line2": "2 02965  89.2499  24.7450 0045959 246.6699 231.1890 13.53452092870420"}}, "geometry": {"type": "Point", "coordinates": [24.457062230286105, -17.6936620280149]}}, {"type": "Feature", "properties": {"norad_id": 3133, "name": "OPS 7034 (TRANSIT 18)", "group": "nnss", "lat": 25.961312641219315, "lon": 93.64253965181307, "alt_km": 1016.017516685667, "timestamp": "2025-12-09T07:41:33.476519+00:00", "meta": {"OBJECT_NAME": "OPS 7034 (TRANSIT 18)", "OBJECT_ID": "1968-012A", "EPOCH": "2025-12-08T20:34:01.224768", "MEAN_MOTION": 13.51564436, "ECCENTRICITY": 0.00734771, "INCLINATION": 90.0276, "RA_OF_ASC_NODE": 273.6278, "ARG_OF_PERICENTER": 180.4121, "MEAN_ANOMALY": 239.6766, "EPHEMERIS_TYPE": 0, "CLASSIFICATION_TYPE": "U", "NORAD_CAT_ID": 3133, "ELEMENT_SET_NO": 999, "REV_AT_EPOCH": 56866, "BSTAR": 0.00029762797, "MEAN_MOTION_DOT": 2.07e-06, "MEAN_MOTION_DDOT": 0}, "tle": {"line1": "1 03133U 68012A   25342.85695862  .00000207  00000+0  29763-3 0  9990", "line2": "2 03133  90.0276 273.6278 0073477 180.4121 239.6766 13.51564436568664"}}, "geometry": {"type": "Point", "coordinates": [93.64253965181307, 25.961312641219315]}}, {"type": "Feature", "properties": {"norad_id": 4507, "name": "NNSS 19 (TRANSIT 19)", "group": "nnss", "lat": 51.27172023853109, "lon": 54.53859791480452, "alt_km": 1189.3680354896824, "timestamp": "2025-12-09T07:41:33.476531+00:00", "meta": {"OBJECT_NAME": "NNSS 19 (TRANSIT 19)", "OBJECT_ID": "1970-067A", "EPOCH": "2025-12-08T23:56:26.901312", "MEAN_MOTION": 13.51313694, "ECCENTRICITY": 0.01707761, "INCLINATION": 90.0057, "RA_OF_ASC_NODE": 234.5313, "ARG_OF_PERICENTER": 304.3138, "MEAN_ANOMALY": 54.195, "EPHEMERIS_TYPE": 0, "CLASSIFICATION_TYPE": "U", "NORAD_CAT_ID": 4507, "ELEMENT_SET_NO": 999, "REV_AT_EPOCH": 72171, "BSTAR": 0.00029264395, "MEAN_MOTION_DOT": 2.16e-06, "MEAN_MOTION_DDOT": 0}, "tle": {"line1": "1 04507U 70067A   25342.99753358  .00000216  00000+0  29264-3 0  9995", "line2": "2 04507  90.0057 234.5313 0170776 304.3138  54.1950 13.51313694721718"}}, "geometry": {"type": "Point", "coordinates": [54.53859791480452, 51.27172023853109]}}, {"type": "Feature", "properties": {"norad_id": 6909, "name": "NNSS 20 (TRANSIT 20)", "group": "nnss", "lat": -47.146653617266885, "lon": -105.04984605952404, "alt_km": 1082.7458362674633, "timestamp": "2025-12-09T07:41:33.476543+00:00", "meta": {"OBJECT_NAME": "NNSS 20 (TRANSIT 20)", "OBJECT_ID": "1973-081A", "EPOCH": "2025-12-08T19:40:02.097408", "MEAN_MOTION": 13.71431673, "ECCENTRICITY": 0.01566057, "INCLINATION": 89.8561, "RA_OF_ASC_NODE": 255.1129, "ARG_OF_PERICENTER": 89.9209, "MEAN_ANOMALY": 271.9898, "EPHEMERIS_TYPE": 0, "CLASSIFICATION_TYPE": "U", "NORAD_CAT_ID": 6909, "ELEMENT_SET_NO": 999, "REV_AT_EPOCH": 80307, "BSTAR": 0.00038171998, "MEAN_MOTION_DOT": 3.86e-06, "MEAN_MOTION_DDOT": 0}, "tle": {"line1": "1 06909U 73081A   25342.81946872  .00000386  00000+0  38172-3 0  9994", "line2": "2 06909  89.8561 255.1129 0156605  89.9209 271.9898 13.71431673803076"}}, "geometry": {"type": "Point", "coordinates": [-105.04984605952404, -47.146653617266885]}}, {"type": "Feature", "properties": {"norad_id": 10457, "name": "TRANSAT", "group": "nnss", "lat": 17.092855996586692, "lon": -101.39023542854898, "alt_km": 1061.68368084551, "timestamp": "2025-12-09T07:41:33.476554+00:00", "meta": {"OBJECT_NAME": "TRANSAT", "OBJECT_ID": "1977-106A", "EPOCH": "2025-12-08T20:48:25.255872", "MEAN_MOTION": 13.48942788, "ECCENTRICITY": 0.00250257, "INCLINATION": 89.6481, "RA_OF_ASC_NODE": 78.7341, "ARG_OF_PERICENTER": 200.8662, "MEAN_ANOMALY": 280.8023, "EPHEMERIS_TYPE": 0, "CLASSIFICATION_TYPE": "U", "NORAD_CAT_ID": 10457, "ELEMENT_SET_NO": 999, "REV_AT_EPOCH": 36691, "BSTAR": 0.00022884886, "MEAN_MOTION_DOT": 1.54e-06, "MEAN_MOTION_DDOT": 0}, "tle": {"line1": "1 10457U 77106A   25342.86695898  .00000154  00000+0  22885-3 0  9990", "line2": "2 10457  89.6481  78.7341 0025025 200.8662 280.8023 13.48942788366915"}}, "geometry": {"type": "Point", "coordinates": [-101.39023542854898, 17.092855996586692]}}, {"type": "Feature", "properties": {"norad_id": 12458, "name": "NOVA 1", "group": "nnss", "lat": 19.70289659417736, "lon": 91.48633517118955, "alt_km": 1172.778028977401, "timestamp": "2025-12-09T07:41:33.476565+00:00", "meta": {"OBJECT_NAME": "NOVA 1", "OBJECT_ID": "1981-044A", "EPOCH": "2025-12-08T21:17:39.461856", "MEAN_MOTION": 13.23277871, "ECCENTRICITY": 0.00157974, "INCLINATION": 89.8524, "RA_OF_ASC_NODE": 91.4396, "ARG_OF_PERICENTER": 113.4521, "MEAN_ANOMALY": 3.7468, "EPHEMERIS_TYPE": 0, "CLASSIFICATION_TYPE": "U", "NORAD_CAT_ID": 12458, "ELEMENT_SET_NO": 999, "REV_AT_EPOCH": 15135, "BSTAR": 0.0002470035, "MEAN_MOTION_DOT": 1.14e-06, "MEAN_MOTION_DDOT": 0}, "tle": {"line1": "1 12458U 81044A   25342.88726229  .00000114  00000+0  24700-3 0  9998", "line2": "2 12458  89.8524  91.4396 0015797 113.4521   3.7468 13.23277871151350"}}, "geometry": {"type": "Point", "coordinates": [91.48633517118955, 19.70289659417736]}}, {"type": "Feature", "properties": {"norad_id": 15362, "name": "NOVA 3", "group": "nnss", "lat": -75.22582743416716, "lon": -99.96954493776781, "alt_km": 1179.0386351087318, "timestamp": "2025-12-09T07:41:33.476577+00:00", "meta": {"OBJECT_NAME": "NOVA 3", "OBJECT_ID": "1984-110A", "EPOCH": "2025-12-08T18:18:02.464128", "MEAN_MOTION": 13.23043855, "ECCENTRICITY": 0.00307973, "INCLINATION": 90.1223, "RA_OF_ASC_NODE": 80.4879, "ARG_OF_PERICENTER": 343.1969, "MEAN_ANOMALY": 136.1684, "EPHEMERIS_TYPE": 0, "CLASSIFICATION_TYPE": "U", "NORAD_CAT_ID": 15362, "ELEMENT_SET_NO": 999, "REV_AT_EPOCH": 98646, "BSTAR": 0.00022397172, "MEAN_MOTION_DOT": 1.03e-06, "MEAN_MOTION_DDOT": 0}, "tle": {"line1": "1 15362U 84110A   25342.76252852  .00000103  00000+0  22397-3 0  9993", "line2": "2 15362  90.1223  80.4879 0030797 343.1969 136.1684 13.23043855986469"}}, "geometry": {"type": "Point", "coordinates": [-99.96954493776781, -75.22582743416716]}}, {"type": "Feature", "properties": {"norad_id": 15935, "name": "OSCAR 30", "group": "nnss", "lat": 1.8461061271375343, "lon": -80.20356593221945, "alt_km": 1112.5401963735758, "timestamp": "2025-12-09T07:41:33.476588+00:00", "meta": {"OBJECT_NAME": "OSCAR 30", "OBJECT_ID": "1985-066A", "EPOCH": "2025-12-08T20:34:52.400352", "MEAN_MOTION": 13.36077407, "ECCENTRICITY": 0.01694116, "INCLINATION": 90.1649, "RA_OF_ASC_NODE": 99.7836, "ARG_OF_PERICENTER": 94.7382, "MEAN_ANOMALY": 15.8226, "EPHEMERIS_TYPE": 0, "CLASSIFICATION_TYPE": "U", "NORAD_CAT_ID": 15935, "ELEMENT_SET_NO": 999, "REV_AT_EPOCH": 96401, "BSTAR": 0.0002840445, "MEAN_MOTION_DOT": 1.68e-06, "MEAN_MOTION_DDOT": 0}, "tle": {"line1": "1 15935U 85066A   25342.85755093  .00000168  00000+0  28404-3 0  9991", "line2": "2 15935  90.1649  99.7836 0169411  94.7382  15.8226 13.36077407964013"}}, "geometry": {"type": "Point", "coordinates": [-80.20356593221945, 1.8461061271375343]}}, {"type": "Feature", "properties": {"norad_id": 15936, "name": "OSCAR 24", "group": "nnss", "lat": -74.09593709385264, "lon": -88.38299111019518, "alt_km": 1246.6210426637108, "timestamp": "2025-12-09T07:41:33.476599+00:00", "meta": {"OBJECT_NAME": "OSCAR 24", "OBJECT_ID": "1985-066B", "EPOCH": "2025-12-08T20:13:44.976288", "MEAN_MOTION": 13.35935027, "ECCENTRICITY": 0.01704578, "INCLINATION": 90.1788, "RA_OF_ASC_NODE": 92.2365, "ARG_OF_PERICENTER": 101.2137, "MEAN_ANOMALY": 16.1688, "EPHEMERIS_TYPE": 0, "CLASSIFICATION_TYPE": "U", "NORAD_CAT_ID": 15936, "ELEMENT_SET_NO": 999, "REV_AT_EPOCH": 96591, "BSTAR": 0.00026157043, "MEAN_MOTION_DOT": 1.56e-06, "MEAN_MOTION_DDOT": 0}, "tle": {"line1": "1 15936U 85066B   25342.84288167  .00000156  00000+0  26157-3 0  9994", "line2": "2 15936  90.1788  92.2365 0170457 101.2137  16.1688 13.35935027965913"}}, "geometry": {"type": "Point", "coordinates": [-88.38299111019518, -74.09593709385264]}}]}